0 CZ-4 DEB
1 20793U 90081F   13282.08388125  .00000401  00000-0  23435-3 0  5890
2 20793 098.7949 315.5591 0020844 301.5256 077.9834 14.13812445187768
0 CZ-4 DEB
1 20793U 90081F   13283.36714247  .00000426  00000-0  24786-3 0  5909
2 20793 098.7948 316.8216 0020849 297.6502 129.6586 14.13813288187944
0 CZ-4 DEB
1 20793U 90081F   13286.05522947  .00000317  00000-0  19031-3 0  5920
2 20793 098.7942 319.4663 0020907 289.5222 131.7762 14.13816531188324
0 CZ-4 DEB
1 20793U 90081F   13287.32898385  .00000330  00000-0  19716-3 0  5939
2 20793 098.7939 320.7195 0020962 285.6908 135.0608 14.13817716188506
0 CZ-4 DEB
1 20793U 90081F   13288.47578701  .00000486  00000-0  27943-3 0  5947
2 20793 098.7936 321.8477 0020997 282.2955 212.1302 14.13819032188669
0 CZ-4 DEB
1 20793U 90081F   13289.67660206  .00000481  00000-0  27644-3 0  5956
2 20793 098.7934 323.0289 0021030 278.7060 204.1544 14.13819788188834
0 CZ-4 DEB
1 20793U 90081F   13291.07316014  .00000497  00000-0  28531-3 0  5962
2 20793 098.7932 324.4026 0021047 274.5370 112.4887 14.13820827189032
0 CZ-4 DEB
1 20793U 90081F   13292.51079726  .00000474  00000-0  27290-3 0  5975
2 20793 098.7932 325.8165 0021110 270.2365 229.9219 14.13822780189234
0 CZ-4 DEB
1 20793U 90081F   13293.64021447  .00000427  00000-0  24819-3 0  5980
2 20793 098.7932 326.9273 0021150 266.8820 218.5252 14.13824299189392
0 CZ-4 DEB
1 20793U 90081F   13294.70093590  .00000402  00000-0  23510-3 0  5997
2 20793 098.7933 327.9705 0021210 263.7533 217.4598 14.13825823189540
0 CZ-4 DEB
1 20793U 90081F   13296.03274278  .00000434  00000-0  25176-3 0  6007
2 20793 098.7933 329.2804 0021292 259.8423 156.1780 14.13826809189737
